GLOBALSTAR M001         
1 25162U 98008A   24356.78796456 -.00000060  00000+0  27856-3 0  9990
2 25162  52.0018 129.5554 0001237 188.6229 337.9448 12.38204566221846
GLOBALSTAR M004         
1 25163U 98008B   24356.08767920 -.00000041  00000+0  34953-3 0  9993
2 25163  51.9989 237.4871 0002033 258.4784 249.1696 12.63382757239171
GLOBALSTAR M002         
1 25164U 98008C   24356.28447538 -.00000040  00000+0  70859-3 0  9990
2 25164  52.0036 326.2648 0001039 171.9321 188.1516 11.61507296163394
GLOBALSTAR M003         
1 25165U 98008D   24356.34933045  .00000024  00000+0  12046-2 0  9995
2 25165  51.9993 301.0490 0007848 297.7420 232.7081 12.12061223211650
GLOBALSTAR M014         
1 25306U 98023A   24356.18900795 -.00000049  00000+0  54277-3 0  9998
2 25306  51.9833 253.4732 0001882  44.7609 124.5624 11.65476840170411
GLOBALSTAR M006         
1 25307U 98023B   24356.85111660 -.00000046  00000+0  60303-3 0  9992
2 25307  51.9956 297.6434 0003446 135.0813 258.5218 11.58170505196399
GLOBALSTAR M015         
1 25308U 98023C   24356.40250696 -.00000085  00000+0 -27143-3 0  9996
2 25308  51.9847  29.0828 0012898 120.4780  15.8957 11.48855137173642
GLOBALSTAR M008         
1 25309U 98023D   24356.51390394 -.00000054  00000+0  32778-3 0  9994
2 25309  51.9991 353.1714 0002585 157.4408 345.2543 12.36058595215871
